IRIDIUM 144             
1 43249U 18030A   23337.98375296  .00000558  00000+0  19218-3 0  9992
2 43249  86.3945 317.5062 0002269  87.7094 272.4362 14.34222384297408
IRIDIUM 149             
1 43250U 18030B   23337.50170879  .00000575  00000+0  19836-3 0  9997
2 43250  86.3951 317.6845 0003310  69.9755 290.1797 14.34210954297332
IRIDIUM 157             
1 43251U 18030C   23338.49749783  .00000543  00000+0  18670-3 0  9993
2 43251  86.3946 317.3011 0001988  94.3326 265.8097 14.34219045297459
IRIDIUM 140             
1 43252U 18030D   23338.02813181  .00000397  00000+0  13457-3 0  9992
2 43252  86.3946 317.5123 0002628  90.2410 269.9087 14.34216441297447
IRIDIUM 145             
1 43253U 18030E   23338.43406494  .00000520  00000+0  17845-3 0  9996
2 43253  86.3961 317.3135 0002951  87.0604 273.0929 14.34214362297434
IRIDIUM 146             
1 43254U 18030F   23338.48480616  .00000174  00000+0  55075-4 0  9993
2 43254  86.3946 317.3105 0002334  83.1735 276.9727 14.34216676297452
IRIDIUM 148             
1 43255U 18030G   23337.47634904  .00000614  00000+0  21234-3 0  9991
2 43255  86.3946 317.7623 0002196  84.6972 275.4475 14.34219402297349
IRIDIUM 142             
1 43256U 18030H   23338.49114973 -.00000287  00000+0 -10972-3 0  9999
2 43256  86.3936 317.2602 0002149  83.3443 276.7997 14.34215587297453
